******** Week   34 almanac for PRN-19 ********
ID:                         19
Health:                     000
Eccentricity:               0.5770683289E-002
Time of Applicability(s):  319488.0000
Orbital Inclination(rad):   0.9276053730
Rate of Right Ascen(r/s):  -0.8240343243E-008
SQRT(A)  (m 1/2):           5153.613770
Right Ascen at Week(rad):  -0.6378304100E+000
Argument of Perigee(rad):  -2.647568448
Mean Anom(rad):             0.9768764913E+000
Af0(s):                     0.1535415649E-003
Af1(s/s):                   0.1091393642E-010
week:                         34

******** Week   34 almanac for PRN-21 ********
ID:                         21
Health:                     000
Eccentricity:               0.1605319977E-001
Time of Applicability(s):  319488.0000
Orbital Inclination(rad):   0.9741221419
Rate of Right Ascen(r/s):  -0.7543171346E-008
SQRT(A)  (m 1/2):           5153.642578
Right Ascen at Week(rad):  -0.2651567809E+001
Argument of Perigee(rad):  -2.555919837
Mean Anom(rad):            -0.1340895076E+001
Af0(s):                     0.6675720215E-005
Af1(s/s):                   0.0000000000E+000
week:                         34

******** Week   34 almanac for PRN-22 ********
ID:                         22
Health:                     000
Eccentricity:               0.1304578781E-001
Time of Applicability(s):  319488.0000
Orbital Inclination(rad):   0.9343944364
Rate of Right Ascen(r/s):  -0.7954617056E-008
SQRT(A)  (m 1/2):           5153.805664
Right Ascen at Week(rad):   0.4316309598E+000
Argument of Perigee(rad):   0.562586330
Mean Anom(rad):            -0.1963178576E+001
Af0(s):                     0.3490447998E-003
Af1(s/s):                  -0.1455191523E-010
week:                         34

******** Week   34 almanac for PRN-23 ********
ID:                         23
Health:                     000
Eccentricity:               0.1465320587E-001
Time of Applicability(s):  319488.0000
Orbital Inclination(rad):   0.9771901035
Rate of Right Ascen(r/s):  -0.7531742299E-008
SQRT(A)  (m 1/2):           5153.545898
Right Ascen at Week(rad):  -0.2610804217E+001
Argument of Perigee(rad):  -1.895419768
Mean Anom(rad):            -0.1400162686E+001
Af0(s):                     0.9536743164E-005
Af1(s/s):                   0.0000000000E+000
week:                         34

******** Week   34 almanac for PRN-24 ********
ID:                         24
Health:                     000
Eccentricity:               0.8895874023E-002
Time of Applicability(s):  319488.0000
Orbital Inclination(rad):   0.9868194282
Rate of Right Ascen(r/s):  -0.7760323249E-008
SQRT(A)  (m 1/2):           5153.503418
Right Ascen at Week(rad):   0.2614086022E+001
Argument of Perigee(rad):  -1.697143014
Mean Anom(rad):             0.1182553504E+001
Af0(s):                     0.7028579712E-003
Af1(s/s):                   0.1091393642E-010
week:                         34

******** Week   34 almanac for PRN-25 ********
ID:                         25
Health:                     000
Eccentricity:               0.8218765259E-002
Time of Applicability(s):  319488.0000
Orbital Inclination(rad):   0.9366714391
Rate of Right Ascen(r/s):  -0.8171768958E-008
SQRT(A)  (m 1/2):           5153.664551
Right Ascen at Week(rad):  -0.6179792905E+000
Argument of Perigee(rad):  -2.154599604
Mean Anom(rad):             0.2211064029E+001
Af0(s):                     0.5722045898E-005
Af1(s/s):                   0.0000000000E+000
week:                         34

******** Week   34 almanac for PRN-26 ********
ID:                         26
Health:                     000
Eccentricity:               0.1199293137E-001
Time of Applicability(s):  319488.0000
Orbital Inclination(rad):   0.9628150257
Rate of Right Ascen(r/s):  -0.8091765626E-008
SQRT(A)  (m 1/2):           5153.679199
Right Ascen at Week(rad):  -0.1604479489E+001
Argument of Perigee(rad):   0.065730478
Mean Anom(rad):            -0.3119651036E+001
Af0(s):                     0.3671646118E-003
Af1(s/s):                   0.2546585165E-010
week:                         34

******** Week   34 almanac for PRN-27 ********
ID:                         27
Health:                     000
Eccentricity:               0.1408386230E-001
Time of Applicability(s):  319488.0000
Orbital Inclination(rad):   0.9411355629
Rate of Right Ascen(r/s):  -0.8080336578E-008
SQRT(A)  (m 1/2):           5153.450684
Right Ascen at Week(rad):  -0.5968507275E+000
Argument of Perigee(rad):  -2.753105652
Mean Anom(rad):             0.4232120418E+000
Af0(s):                     0.1716613770E-004
Af1(s/s):                   0.0000000000E+000
week:                         34

******** Week   34 almanac for PRN-29 ********
ID:                         29
Health:                     000
Eccentricity:               0.7607936859E-002
Time of Applicability(s):  319488.0000
Orbital Inclination(rad):   0.9595613087
Rate of Right Ascen(r/s):  -0.8126052768E-008
SQRT(A)  (m 1/2):           5153.637695
Right Ascen at Week(rad):  -0.1632664139E+001
Argument of Perigee(rad):  -1.901461690
Mean Anom(rad):            -0.2842284764E+001
Af0(s):                     0.5655288696E-003
Af1(s/s):                   0.2182787284E-010
week:                         34

******** Week   34 almanac for PRN-30 ********
ID:                         30
Health:                     000
Eccentricity:               0.5511283875E-002
Time of Applicability(s):  319488.0000
Orbital Inclination(rad):   0.9449525385
Rate of Right Ascen(r/s):  -0.7886042771E-008
SQRT(A)  (m 1/2):           5153.641113
Right Ascen at Week(rad):   0.4680064530E+000
Argument of Perigee(rad):   1.474633408
Mean Anom(rad):            -0.1305992893E+001
Af0(s):                    -0.1811981201E-004
Af1(s/s):                   0.0000000000E+000
week:                         34

******** Week   34 almanac for PRN-31 ********
ID:                         31
Health:                     000
Eccentricity:               0.9612560272E-002
Time of Applicability(s):  319488.0000
Orbital Inclination(rad):   0.9501536921
Rate of Right Ascen(r/s):  -0.8400349908E-008
SQRT(A)  (m 1/2):           5153.630859
Right Ascen at Week(rad):   0.1510783448E+001
Argument of Perigee(rad):   0.827817076
Mean Anom(rad):             0.2366097205E+001
Af0(s):                     0.9536743164E-006
Af1(s/s):                   0.0000000000E+000
week:                         34

